{"type": "FeatureCollection", "features": [ {"type": "Feature", "properties": {"norad_id": 36402, "name": "COSMOS 2460 (732)", "group": "gnss", "lat": 45.61682798247174, "lon": 112.83104554569842, "alt_km": 19129.972315886593, "timestamp": "2025-12-18T15:47:11.464133+00:00", "meta": {"OBJECT_NAME": "COSMOS 2460 (732)", "OBJECT_ID": "2010-007C", "EPOCH": "2025-12-18T04:47:08.780352", "MEAN_MOTION": 2.13106298, "ECCENTRICITY": 0.00025974, "INCLINATION": 65.5265, "RA_OF_ASC_NODE": 320.5882, "ARG_OF_PERICENTER": 276.4168, "MEAN_ANOMALY": 220.1486, "EPHEMERIS_TYPE": 0, "CLASSIFICATION_TYPE": "U", "NORAD_CAT_ID": 36402, "ELEMENT_SET_NO": 999, "REV_AT_EPOCH": 12287, "BSTAR": 0, "MEAN_MOTION_DOT": -6.4e-07, "MEAN_MOTION_DDOT": 0}, "tle": {"line1": "1 36402U 10007C   25352.19940718 -.00000064  00000+0  00000+0 0  9998", "line2": "2 36402  65.5265 320.5882 0002597 276.4168 220.1486  2.13106298122876"}}, "geometry": {"type": "Point", "coordinates": [112.83104554569842, 45.61682798247174]}}, {"type": "Feature", "properties": {"norad_id": 36585, "name": "GPS BIIF-1  (PRN 25)", "group": "gnss", "lat": 32.8094322108007, "lon": 8.240175873401325, "alt_km": 20077.05469606993, "timestamp": "2025-12-18T15:47:11.464146+00:00", "meta": {"OBJECT_NAME": "GPS BIIF-1  (PRN 25)", "OBJECT_ID": "2010-022A", "EPOCH": "2025-12-18T05:21:58.347936", "MEAN_MOTION": 2.00553561, "ECCENTRICITY": 0.01263418, "INCLINATION": 54.2992, "RA_OF_ASC_NODE": 215.8527, "ARG_OF_PERICENTER": 65.143, "MEAN_ANOMALY": 118.1807, "EPHEMERIS_TYPE": 0, "CLASSIFICATION_TYPE": "U", "NORAD_CAT_ID": 36585, "ELEMENT_SET_NO": 999, "REV_AT_EPOCH": 11396, "BSTAR": 0, "MEAN_MOTION_DOT": 8.3e-07, "MEAN_MOTION_DDOT": 0}, "tle": {"line1": "1 36585U 10022A   25352.22359199  .00000083  00000+0  00000+0 0  9998", "line2": "2 36585  54.2992 215.8527 0126341  65.1430 118.1807  2.00553561113969"}}, "geometry": {"type": "Point", "coordinates": [8.240175873401325, 32.8094322108007]}}, {"type": "Feature", "properties": {"norad_id": 36828, "name": "BEIDOU-2 IGSO-1 (C06)", "group": "gnss", "lat": -54.18088778841025, "lon": 71.39494630870287, "alt_km": 35658.48033991158, "timestamp": "2025-12-18T15:47:11.464158+00:00", "meta": {"OBJECT_NAME": "BEIDOU-2 IGSO-1 (C06)", "OBJECT_ID": "2010-036A", "EPOCH": "2025-12-14T21:38:21.623424", "MEAN_MOTION": 1.00275796, "ECCENTRICITY": 0.00512569, "INCLINATION": 54.2866, "RA_OF_ASC_NODE": 164.6279, "ARG_OF_PERICENTER": 215.8888, "MEAN_ANOMALY": 135.7931, "EPHEMERIS_TYPE": 0, "CLASSIFICATION_TYPE": "U", "NORAD_CAT_ID": 36828, "ELEMENT_SET_NO": 999, "REV_AT_EPOCH": 5624, "BSTAR": 0, "MEAN_MOTION_DOT": -2.4e-07, "MEAN_MOTION_DDOT": 0}, "tle": {"line1": "1 36828U 10036A   25348.90163916 -.00000024  00000+0  00000+0 0  9999", "line2": "2 36828  54.2866 164.6279 0051256 215.8888 135.7931  1.00275796 56247"}}, "geometry": {"type": "Point", "coordinates": [71.39494630870287, -54.18088778841025]}}, {"type": "Feature", "properties": {"norad_id": 37210, "name": "BEIDOU-2 G4 (C04)", "group": "gnss", "lat": 2.6202175747871768, "lon": 124.26520274745126, "alt_km": 35818.69562871178, "timestamp": "2025-12-18T15:47:11.464172+00:00", "meta": {"OBJECT_NAME": "BEIDOU-2 G4 (C04)", "OBJECT_ID": "2010-057A", "EPOCH": "2025-12-18T05:29:48.091776", "MEAN_MOTION": 1.00272036, "ECCENTRICITY": 0.00104836, "INCLINATION": 3.1978, "RA_OF_ASC_NODE": 69.919, "ARG_OF_PERICENTER": 192.3897, "MEAN_ANOMALY": 67.3167, "EPHEMERIS_TYPE": 0, "CLASSIFICATION_TYPE": "U", "NORAD_CAT_ID": 37210, "ELEMENT_SET_NO": 999, "REV_AT_EPOCH": 5547, "BSTAR": 0, "MEAN_MOTION_DOT": -8.9e-07, "MEAN_MOTION_DDOT": 0}, "tle": {"line1": "1 37210U 10057A   25352.22902884 -.00000089  00000+0  00000+0 0  9994", "line2": "2 37210   3.1978  69.9190 0010483 192.3897  67.3167  1.00272036 55474"}}, "geometry": {"type": "Point", "coordinates": [124.26520274745126, 2.6202175747871768]}}, {"type": "Feature", "properties": {"norad_id": 37256, "name": "BEIDOU-2 IGSO-2 (C07)", "group": "gnss", "lat": 16.41608078342786, "lon": 78.62704184056165, "alt_km": 35674.02358791289, "timestamp": "2025-12-18T15:47:11.464184+00:00", "meta": {"OBJECT_NAME": "BEIDOU-2 IGSO-2 (C07)", "OBJECT_ID": "2010-068A", "EPOCH": "2025-12-17T17:15:44.928000", "MEAN_MOTION": 1.00285242, "ECCENTRICITY": 0.00482968, "INCLINATION": 47.8766, "RA_OF_ASC_NODE": 274.0874, "ARG_OF_PERICENTER": 216.3076, "MEAN_ANOMALY": 322.9541, "EPHEMERIS_TYPE": 0, "CLASSIFICATION_TYPE": "U", "NORAD_CAT_ID": 37256, "ELEMENT_SET_NO": 999, "REV_AT_EPOCH": 5497, "BSTAR": 0, "MEAN_MOTION_DOT": -2.07e-06, "MEAN_MOTION_DDOT": 0}, "tle": {"line1": "1 37256U 10068A   25351.71927000 -.00000207  00000+0  00000+0 0  9998", "line2": "2 37256  47.8766 274.0874 0048296 216.3076 322.9541  1.00285242 54974"}}, "geometry": {"type": "Point", "coordinates": [78.62704184056165, 16.41608078342786]}}, {"type": "Feature", "properties": {"norad_id": 37384, "name": "BEIDOU-2 IGSO-3 (C08)", "group": "gnss", "lat": 25.923043464325087, "lon": 56.77151532111507, "alt_km": 35922.914201180814, "timestamp": "2025-12-18T15:47:11.464196+00:00", "meta": {"OBJECT_NAME": "BEIDOU-2 IGSO-3 (C08)", "OBJECT_ID": "2011-013A", "EPOCH": "2025-12-17T16:16:10.103808", "MEAN_MOTION": 1.00269735, "ECCENTRICITY": 0.00353562, "INCLINATION": 62.15, "RA_OF_ASC_NODE": 41.8689, "ARG_OF_PERICENTER": 187.938, "MEAN_ANOMALY": 208.2285, "EPHEMERIS_TYPE": 0, "CLASSIFICATION_TYPE": "U", "NORAD_CAT_ID": 37384, "ELEMENT_SET_NO": 999, "REV_AT_EPOCH": 5384, "BSTAR": 0, "MEAN_MOTION_DOT": -1.79e-06, "MEAN_MOTION_DDOT": 0}, "tle": {"line1": "1 37384U 11013A   25351.67789472 -.00000179  00000+0  00000+0 0  9993", "line2": "2 37384  62.1500  41.8689 0035356 187.9380 208.2285  1.00269735 53845"}}, "geometry": {"type": "Point", "coordinates": [56.77151532111507, 25.923043464325087]}}, {"type": "Feature", "properties": {"norad_id": 37605, "name": "GSAT-8 (GAGAN/PRN 127)", "group": "gnss", "lat": -1.4905475816795986, "lon": 19.495650622609837, "alt_km": 35799.08785257814, "timestamp": "2025-12-18T15:47:11.464209+00:00", "meta": {"OBJECT_NAME": "GSAT-8 (GAGAN/PRN 127)", "OBJECT_ID": "2011-022A", "EPOCH": "2025-12-18T01:34:17.690592", "MEAN_MOTION": 1.00271807, "ECCENTRICITY": 0.00086629, "INCLINATION": 1.6628, "RA_OF_ASC_NODE": 84.1397, "ARG_OF_PERICENTER": 184.8217, "MEAN_ANOMALY": 256.632, "EPHEMERIS_TYPE": 0, "CLASSIFICATION_TYPE": "U", "NORAD_CAT_ID": 37605, "ELEMENT_SET_NO": 999, "REV_AT_EPOCH": 5140, "BSTAR": 0, "MEAN_MOTION_DOT": 1.08e-06, "MEAN_MOTION_DDOT": 0}, "tle": {"line1": "1 37605U 11022A   25352.06548253  .00000108  00000+0  00000+0 0  9994", "line2": "2 37605   1.6628  84.1397 0008662 184.8217 256.6320  1.00271807 51401"}}, "geometry": {"type": "Point", "coordinates": [19.495650622609837, -1.4905475816795986]}}, {"type": "Feature", "properties": {"norad_id": 37763, "name": "BEIDOU-2 IGSO-4 (C09)", "group": "gnss", "lat": -50.85065507927665, "lon": 48.396817346496256, "alt_km": 35204.44913968016, "timestamp": "2025-12-18T15:47:11.464222+00:00", "meta": {"OBJECT_NAME": "BEIDOU-2 IGSO-4 (C09)", "OBJECT_ID": "2011-038A", "EPOCH": "2025-12-17T23:29:21.564384", "MEAN_MOTION": 1.00281312, "ECCENTRICITY": 0.01493143, "INCLINATION": 54.5836, "RA_OF_ASC_NODE": 167.2999, "ARG_OF_PERICENTER": 230.2426, "MEAN_ANOMALY": 136.1954, "EPHEMERIS_TYPE": 0, "CLASSIFICATION_TYPE": "U", "NORAD_CAT_ID": 37763, "ELEMENT_SET_NO": 999, "REV_AT_EPOCH": 5283, "BSTAR": 0, "MEAN_MOTION_DOT": 6.5e-07, "MEAN_MOTION_DDOT": 0}, "tle": {"line1": "1 37763U 11038A   25351.97872181  .00000065  00000+0  00000+0 0  9997", "line2": "2 37763  54.5836 167.2999 0149314 230.2426 136.1954  1.00281312 52838"}}, "geometry": {"type": "Point", "coordinates": [48.396817346496256, -50.85065507927665]}}, {"type": "Feature", "properties": {"norad_id": 37846, "name": "GSAT0101 (GALILEO-PFM)", "group": "gnss", "lat": -50.50344096067282, "lon": -65.25266232391857, "alt_km": 23219.258021871407, "timestamp": "2025-12-18T15:47:11.464235+00:00", "meta": {"OBJECT_NAME": "GSAT0101 (GALILEO-PFM)", "OBJECT_ID": "2011-060A", "EPOCH": "2025-12-15T20:00:41.819904", "MEAN_MOTION": 1.70475823, "ECCENTRICITY": 0.00030775, "INCLINATION": 57.052, "RA_OF_ASC_NODE": 346.7358, "ARG_OF_PERICENTER": 316.7426, "MEAN_ANOMALY": 43.2514, "EPHEMERIS_TYPE": 0, "CLASSIFICATION_TYPE": "U", "NORAD_CAT_ID": 37846, "ELEMENT_SET_NO": 999, "REV_AT_EPOCH": 8799, "BSTAR": 0, "MEAN_MOTION_DOT": -8.2e-07, "MEAN_MOTION_DDOT": 0}, "tle": {"line1": "1 37846U 11060A   25349.83381736 -.00000082  00000+0  00000+0 0  9997", "line2": "2 37846  57.0520 346.7358 0003077 316.7426  43.2514  1.70475823 87990"}}, "geometry": {"type": "Point", "coordinates": [-65.25266232391857, -50.50344096067282]}}, {"type": "Feature", "properties": {"norad_id": 37847, "name": "GSAT0102 (GALILEO-FM2)", "group": "gnss", "lat": -17.82453932931878, "lon": -25.38423410751812, "alt_km": 23211.05110240829, "timestamp": "2025-12-18T15:47:11.464248+00:00", "meta": {"OBJECT_NAME": "GSAT0102 (GALILEO-FM2)", "OBJECT_ID": "2011-060B", "EPOCH": "2025-12-18T04:50:23.608032", "MEAN_MOTION": 1.70476038, "ECCENTRICITY": 0.00050885, "INCLINATION": 57.0523, "RA_OF_ASC_NODE": 346.6721, "ARG_OF_PERICENTER": 311.7479, "MEAN_ANOMALY": 106.914, "EPHEMERIS_TYPE": 0, "CLASSIFICATION_TYPE": "U", "NORAD_CAT_ID": 37847, "ELEMENT_SET_NO": 999, "REV_AT_EPOCH": 8804, "BSTAR": 0, "MEAN_MOTION_DOT": -7.6e-07, "MEAN_MOTION_DDOT": 0}, "tle": {"line1": "1 37847U 11060B   25352.20166213 -.00000076  00000+0  00000+0 0  9997", "line2": "2 37847  57.0523 346.6721 0005088 311.7479 106.9140  1.70476038 88042"}}, "geometry": {"type": "Point", "coordinates": [-25.38423410751812, -17.82453932931878]}}]}